NORAD_CAT_ID,OBJECT_NAME,OBJECT_TYPE,EPOCH,MEAN_MOTION,ECCENTRICITY,INCLINATION,RA_OF_ASC_NODE,ARG_OF_PERICENTER,MEAN_ANOMALY,BSTAR,MEAN_MOTION_DOT,MEAN_MOTION_DDOT,TLE_LINE0,TLE_LINE1,TLE_LINE2,SEMIMAJOR_AXIS,PERIOD,APOGEE,PERIGEE,DECAYED
53978.0,STARLINK-5148,PAYLOAD,2024-08-01 17:23:31,15.0886229,0.0001408,53.219,325.0459,99.376,260.7391,0.00027723,4.13e-05,0.0,0 STARLINK-5148,1 53978U 22125Q   24214.72466464  .00004130  00000-0  27723-3 0  9998,2 53978  53.2190 325.0459 0001408  99.3760 260.7391 15.08862290101156,6917.812,95.436,540.651,538.703,0.0
53978.0,STARLINK-5148,PAYLOAD,2024-08-02 12:28:10,15.08839331,0.0001875,53.2182,321.4752,109.602,250.5175,6.4529e-05,7.39e-06,0.0,0 STARLINK-5148,1 53978U 22125Q   24215.51956526  .00000739  00000-0  64529-4 0  9996,2 53978  53.2182 321.4752 0001875 109.6020 250.5175 15.08839331101275,6917.882,95.438,541.045,538.45,0.0
53978.0,STARLINK-5148,PAYLOAD,2024-08-02 14:03:33,15.08843,0.0001543,53.2185,321.1823,89.6556,270.4613,2.8021e-05,1.58e-06,0.0,0 STARLINK-5148,1 53978U 22125Q   24215.58580547  .00000158  00000-0  28021-4 0  9991,2 53978  53.2185 321.1823 0001543  89.6556 270.4613 15.08843000101217,6917.871,95.437,540.804,538.669,0.0
53978.0,STARLINK-5148,PAYLOAD,2024-08-03 12:18:56,15.08855839,0.0001568,53.2182,317.0205,90.0108,270.1064,-7.5335e-05,-1.487e-05,0.0,0 STARLINK-5148,1 53978U 22125Q   24216.51315848 -.00001487  00000-0 -75335-4 0  9993,2 53978  53.2182 317.0205 0001568  90.0108 270.1064 15.08855839101421,6917.832,95.437,540.782,538.612,0.0
53978.0,STARLINK-5148,PAYLOAD,2024-08-03 13:54:19,15.08858322,0.0001523,53.2182,316.7242,93.5651,266.5516,-1.8715e-05,-5.86e-06,0.0,0 STARLINK-5148,1 53978U 22125Q   24216.57939472 -.00000586  00000-0 -18715-4 0  9992,2 53978  53.2182 316.7242 0001523  93.5651 266.5516 15.08858322101364,6917.824,95.436,540.743,538.636,0.0
53978.0,STARLINK-5148,PAYLOAD,2024-08-04 13:45:08,15.08838431,0.0001801,53.2175,312.2673,99.1536,260.9659,-7.1453e-05,-1.425e-05,0.0,0 STARLINK-5148,1 53978U 22125Q   24217.57301172 -.00001425  00000-0 -71453-4 0  9994,2 53978  53.2175 312.2673 0001801  99.1536 260.9659 15.08838431101587,6917.885,95.438,540.996,538.504,0.0
53978.0,STARLINK-5148,PAYLOAD,2024-08-04 23:17:26,15.08847563,0.0001624,53.2176,310.4791,90.801,269.3169,0.00016447,2.331e-05,0.0,0 STARLINK-5148,1 53978U 22125Q   24217.97044154  .00002331  00000-0  16447-3 0  9998,2 53978  53.2176 310.4791 0001624  90.8010 269.3169 15.08847563101649,6917.857,95.437,540.846,538.599,0.0
53978.0,STARLINK-5148,PAYLOAD,2024-08-05 13:35:54,15.08854178,0.0001973,53.2168,307.7997,87.9285,272.1933,0.00019932,2.887e-05,0.0,0 STARLINK-5148,1 53978U 22125Q   24218.56659747  .00002887  00000-0  19932-3 0  9992,2 53978  53.2168 307.7997 0001973  87.9285 272.1933 15.08854178101668,6917.837,95.437,541.067,538.337,0.0
53978.0,STARLINK-5148,PAYLOAD,2024-08-05 23:08:13,15.08839255,0.0001505,53.2152,306.0208,94.5231,265.5933,0.00013782,1.906e-05,0.0,0 STARLINK-5148,1 53978U 22125Q   24218.96404523  .00001906  00000-0  13782-3 0  9994,2 53978  53.2152 306.0208 0001505  94.5231 265.5933 15.08839255101793,6917.883,95.438,540.789,538.707,0.0
53978.0,STARLINK-5148,PAYLOAD,2024-08-06 10:15:56,15.08823444,0.0001368,53.2162,303.9362,98.4047,261.7101,-0.00017613,-3.089e-05,0.0,0 STARLINK-5148,1 53978U 22125Q   24219.42773542 -.00003089  00000-0 -17613-3 0  9999,2 53978  53.2162 303.9362 0001368  98.4047 261.7101 15.08823444101862,6917.931,95.439,540.742,538.85,0.0
53978.0,STARLINK-5148,PAYLOAD,2024-08-06 13:26:42,15.08828291,0.0001455,53.2154,303.3417,98.8909,261.2248,-0.00014739,-2.632e-05,0.0,0 STARLINK-5148,1 53978U 22125Q   24219.56021162 -.00002632  00000-0 -14739-3 0  9997,2 53978  53.2154 303.3417 0001455  98.8909 261.2248 15.08828291101813,6917.916,95.438,540.788,538.775,0.0
53978.0,STARLINK-5148,PAYLOAD,2024-08-06 15:02:05,15.08830741,0.0001445,53.2147,303.0421,106.7106,253.4045,-5.3983e-05,-1.147e-05,0.0,0 STARLINK-5148,1 53978U 22125Q   24219.62645062 -.00001147  00000-0 -53983-4 0  9990,2 53978  53.2147 303.0421 0001445 106.7106 253.4045 15.08830741101893,6917.909,95.438,540.773,538.774,0.0
53978.0,STARLINK-5148,PAYLOAD,2024-08-07 11:42:06,15.08849879,0.0001441,53.2146,299.179,102.4589,257.6564,0.00092508,0.00014469,0.0,0 STARLINK-5148,1 53978U 22125Q   24220.48757204  .00014469  00000-0  92508-3 0  9992,2 53978  53.2146 299.1790 0001441 102.4589 257.6564 15.08849879102020,6917.85,95.437,540.712,538.718,0.0
53978.0,STARLINK-5148,PAYLOAD,2024-08-08 11:32:52,15.0886335,0.0001457,53.2146,294.7188,93.7337,266.3821,0.00093063,0.00014563,0.0,0 STARLINK-5148,1 53978U 22125Q   24221.48116792  .00014563  00000-0  93063-3 0  9996,2 53978  53.2146 294.7188 0001457  93.7337 266.3821 15.08863350102171,6917.809,95.436,540.682,538.666,0.0
53978.0,STARLINK-5148,PAYLOAD,2024-08-09 05:02:07,15.08840297,0.0001761,53.2161,291.4459,90.2041,269.9153,0.00072029,0.00011194,0.0,0 STARLINK-5148,1 53978U 22125Q   24222.20981247  .00011194  00000-0  72029-3 0  9998,2 53978  53.2161 291.4459 0001761  90.2041 269.9153 15.08840297102289,6917.879,95.438,540.963,538.526,0.0
53978.0,STARLINK-5148,PAYLOAD,2024-08-09 11:23:40,15.08835137,0.0001569,53.216,290.2548,79.2843,280.8326,0.0006512,0.0001009,0.0,0 STARLINK-5148,1 53978U 22125Q   24222.47477543  .00010090  00000-0  65120-3 0  9994,2 53978  53.2160 290.2548 0001569  79.2843 280.8326 15.08835137102323,6917.895,95.438,540.846,538.675,0.0
53978.0,STARLINK-5148,PAYLOAD,2024-08-09 14:34:26,15.08839965,0.0001621,53.2158,289.6598,82.2667,277.8509,0.0004379,6.688e-05,0.0,0 STARLINK-5148,1 53978U 22125Q   24222.60725404  .00006688  00000-0  43790-3 0  9998,2 53978  53.2158 289.6598 0001621  82.2667 277.8509 15.08839965102270,6917.88,95.438,540.867,538.624,0.0
53978.0,STARLINK-5148,PAYLOAD,2024-08-10 14:25:13,15.08866874,0.0001817,53.2161,285.1977,74.1177,286.0015,0.0010813,0.00016975,0.0,0 STARLINK-5148,1 53978U 22125Q   24223.60084954  .00016975  00000-0  10813-2 0  9996,2 53978  53.2161 285.1977 0001817  74.1177 286.0015 15.08866874102429,6917.798,95.436,540.92,538.406,0.0
53978.0,STARLINK-5148,PAYLOAD,2024-08-10 20:46:46,15.08852247,0.0002086,53.216,284.0036,64.2265,295.8942,0.0007034,0.00010928,0.0,0 STARLINK-5148,1 53978U 22125Q   24223.86581155  .00010928  00000-0  70340-3 0  9993,2 53978  53.2160 284.0036 0002086  64.2265 295.8942 15.08852247102537,6917.843,95.437,541.151,538.265,0.0
53978.0,STARLINK-5148,PAYLOAD,2024-08-11 12:40:37,15.08849746,0.0001683,53.217,281.041,103.646,256.472,0.00074968,0.00011666,0.0,0 STARLINK-5148,1 53978U 22125Q   24224.52821357  .00011666  00000-0  74968-3 0  9998,2 53978  53.2170 281.0410 0001683 103.6460 256.4720 15.08849746102636,6917.851,95.437,540.88,538.551,0.0
53978.0,STARLINK-5148,PAYLOAD,2024-08-11 20:37:33,15.08852109,0.0001355,53.2163,279.5509,84.0411,276.0736,0.0010613,0.00016649,0.0,0 STARLINK-5148,1 53978U 22125Q   24224.85941376  .00016649  00000-0  10613-2 0  9990,2 53978  53.2163 279.5509 0001355  84.0411 276.0736 15.08852109102613,6917.843,95.437,540.646,538.771,0.0
53978.0,STARLINK-5148,PAYLOAD,2024-08-12 04:34:28,15.08848078,0.000157,53.2166,278.0651,86.6362,273.481,0.00032326,4.862e-05,0.0,0 STARLINK-5148,1 53978U 22125Q   24225.19061289  .00004862  00000-0  32326-3 0  9994,2 53978  53.2166 278.0651 0001570  86.6362 273.4810 15.08848078102737,6917.856,95.437,540.807,538.635,0.0
53978.0,STARLINK-5148,PAYLOAD,2024-08-12 09:20:37,15.08860491,0.0001769,53.2167,277.1703,102.3077,257.8113,0.00069578,0.00010809,0.0,0 STARLINK-5148,1 53978U 22125Q   24225.38932617  .00010809  00000-0  69578-3 0  9994,2 53978  53.2167 277.1703 0001769 102.3077 257.8113 15.08860491102763,6917.818,95.436,540.907,538.459,0.0
53978.0,STARLINK-5148,PAYLOAD,2024-08-13 12:22:13,15.08746931,0.0001404,53.2156,272.1203,75.7796,284.3352,-0.00066445,-0.0001082,0.0,0 STARLINK-5148,1 53978U 22125Q   24226.51543226 -.00010820  00000-0 -66445-3 0  9999,2 53978  53.2156 272.1203 0001404  75.7796 284.3352 15.08746931102939,6918.165,95.443,541.001,539.059,0.0
53978.0,STARLINK-5148,PAYLOAD,2024-08-13 20:19:10,15.08776942,0.0001645,53.2164,270.6322,64.5829,295.5333,0.0016211,0.00025561,0.0,0 STARLINK-5148,1 53978U 22125Q   24226.84664472  .00025561  00000-0  16211-2 0  9993,2 53978  53.2164 270.6322 0001645  64.5829 295.5333 15.08776942102986,6918.073,95.442,541.076,538.8,0.0
53978.0,STARLINK-5148,PAYLOAD,2024-08-14 02:40:42,15.08797108,7.02e-05,53.2159,269.4402,304.5577,55.5349,0.00099461,0.00015558,0.0,0 STARLINK-5148,1 53978U 22125Q   24227.11160129  .00015558  00000-0  99461-3 0  9998,2 53978  53.2159 269.4402 0000702 304.5577  55.5349 15.08797108103029,6918.011,95.44,540.362,539.391,0.0
53978.0,STARLINK-5148,PAYLOAD,2024-08-14 10:37:38,15.08864357,0.0001624,53.2155,267.9531,62.4306,297.6851,0.0022981,0.00036501,0.0,0 STARLINK-5148,1 53978U 22125Q   24227.44280203  .00036501  00000-0  22981-2 0  9993,2 53978  53.2155 267.9531 0001624  62.4306 297.6851 15.08864357103078,6917.806,95.436,540.794,538.547,0.0
53978.0,STARLINK-5148,PAYLOAD,2024-08-14 20:09:56,15.08863612,0.0001712,53.2148,266.1694,60.6548,299.4615,0.00073899,0.000115,0.0,0 STARLINK-5148,1 53978U 22125Q   24227.84023686  .00011500  00000-0  73899-3 0  9994,2 53978  53.2148 266.1694 0001712  60.6548 299.4615 15.08863612103135,6917.808,95.436,540.858,538.489,0.0
53978.0,STARLINK-5148,PAYLOAD,2024-08-15 08:53:00,15.08874265,0.000176,53.2151,263.7906,60.533,299.5837,0.00069244,0.0001076,0.0,0 STARLINK-5148,1 53978U 22125Q   24228.37014658  .00010760  00000-0  69244-3 0  9998,2 53978  53.2151 263.7906 0001760  60.5330 299.5837 15.08874265103143,6917.776,95.435,540.858,538.423,0.0
53978.0,STARLINK-5148,PAYLOAD,2024-08-15 20:00:42,15.08865011,0.000214,53.2143,261.712,48.8637,311.2539,0.0002159,3.152e-05,0.0,0 STARLINK-5148,1 53978U 22125Q   24228.83382182  .00003152  00000-0  21590-3 0  9998,2 53978  53.2143 261.7120 0002140  48.8637 311.2539 15.08865011103287,6917.804,95.436,541.149,538.189,0.0
